$$SOE
2459580.500000000, A.D. 2022-Jan-01 00:00:00.0000, -5.119822202466460E+09, 1.108665031835858E+09, -9.888584101312289E+08,
2459587.500000000, A.D. 2022-Jan-08 00:00:00.0000, -5.120475826930328E+09, 1.105474471187225E+09, -9.882560934020715E+08,
2459594.500000000, A.D. 2022-Jan-15 00:00:00.0000, -5.121127889274879E+09, 1.102283571560253E+09, -9.876534581965816E+08,
2459601.500000000, A.D. 2022-Jan-22 00:00:00.0000, -5.121778385239662E+09, 1.099092332454789E+09, -9.870505050582547E+08,
2459608.500000000, A.D. 2022-Jan-29 00:00:00.0000, -5.122427309985990E+09, 1.095900755847398E+09, -9.864472344236577E+08,
2459615.500000000, A.D. 2022-Feb-05 00:00:00.0000, -5.123074660304036E+09, 1.092708845519694E+09, -9.858436464746594E+08,
2459622.500000000, A.D. 2022-Feb-12 00:00:00.0000, -5.123720434646583E+09, 1.089516605318427E+09, -9.852397412757163E+08,
2459629.500000000, A.D. 2022-Feb-19 00:00:00.0000, -5.124364632314227E+09, 1.086324038716318E+09, -9.846355188811948E+08,
2459636.500000000, A.D. 2022-Feb-26 00:00:00.0000, -5.125007253103429E+09, 1.083131148950652E+09, -9.840309793517275E+08,
2459643.500000000, A.D. 2022-Mar-05 00:00:00.0000, -5.125648297258086E+09, 1.079937939122759E+09, -9.834261227448707E+08,
2459650.500000000, A.D. 2022-Mar-12 00:00:00.0000, -5.126287765502859E+09, 1.076744412192745E+09, -9.828209491060663E+08,
2459657.500000000, A.D. 2022-Mar-19 00:00:00.0000, -5.126925659087156E+09, 1.073550570897652E+09, -9.822154584644413E+08,
2459664.500000000, A.D. 2022-Mar-26 00:00:00.0000, -5.127561979817394E+09, 1.070356417587308E+09, -9.816096508362682E+08,
2459671.500000000, A.D. 2022-Apr-02 00:00:00.0000, -5.128196730009723E+09, 1.067161953922234E+09, -9.810035262471395E+08,
2459678.500000000, A.D. 2022-Apr-09 00:00:00.0000, -5.128829912091162E+09, 1.063967180438677E+09, -9.803970847976363E+08,
2459685.500000000, A.D. 2022-Apr-16 00:00:00.0000, -5.129461527492021E+09, 1.060772096635062E+09, -9.797903267519810E+08,
2459692.500000000, A.D. 2022-Apr-23 00:00:00.0000, -5.130091576098467E+09, 1.057576702664317E+09, -9.791832524448168E+08,
2459699.500000000, A.D. 2022-Apr-30 00:00:00.0000, -5.130720058135402E+09, 1.054381000386964E+09, -9.785758620181426E+08,
2459706.500000000, A.D. 2022-May-07 00:00:00.0000, -5.131346975416916E+09, 1.051184991811537E+09, -9.779681554306806E+08,
2459713.500000000, A.D. 2022-May-14 00:00:00.0000, -5.131972330574922E+09, 1.047988677960599E+09, -9.773601326188684E+08,
2459720.500000000, A.D. 2022-May-21 00:00:00.0000, -5.132596126297078E+09, 1.044792058921155E+09, -9.767517935611790E+08,
2459727.500000000, A.D. 2022-May-28 00:00:00.0000, -5.133218365052761E+09, 1.041595134120777E+09, -9.761431382801919E+08,
2459734.500000000, A.D. 2022-Jun-04 00:00:00.0000, -5.133839049029992E+09, 1.038397902516691E+09, -9.755341668333684E+08,
2459741.500000000, A.D. 2022-Jun-11 00:00:00.0000, -5.134458180138606E+09, 1.035200362700175E+09, -9.749248793055834E+08,
2459748.500000000, A.D. 2022-Jun-18 00:00:00.0000, -5.135075760040931E+09, 1.032002512929751E+09, -9.743152758058147E+08,
2459755.500000000, A.D. 2022-Jun-25 00:00:00.0000, -5.135691790180505E+09, 1.028804351060220E+09, -9.737053564733258E+08,
2459762.500000000, A.D. 2022-Jul-02 00:00:00.0000, -5.136306271674757E+09, 1.025605874302056E+09, -9.730951215108986E+08,
2459769.500000000, A.D. 2022-Jul-09 00:00:00.0000, -5.136919204681344E+09, 1.022407078988370E+09, -9.724845712663325E+08,
2459776.500000000, A.D. 2022-Jul-16 00:00:00.0000, -5.137530587293282E+09, 1.019207961432396E+09, -9.718737062685020E+08,
2459783.500000000, A.D. 2022-Jul-23 00:00:00.0000, -5.138140416161278E+09, 1.016008519953329E+09, -9.712625270097911E+08,
2459790.500000000, A.D. 2022-Jul-30 00:00:00.0000, -5.138748688759151E+09, 1.012808754716625E+09, -9.706510337564874E+08,
2459797.500000000, A.D. 2022-Aug-06 00:00:00.0000, -5.139355403693591E+09, 1.009608666036913E+09, -9.700392266640409E+08,
2459804.500000000, A.D. 2022-Aug-13 00:00:00.0000, -5.139960559881450E+09, 1.006408253897961E+09, -9.694271058963428E+08,
2459811.500000000, A.D. 2022-Aug-20 00:00:00.0000, -5.140564156163887E+09, 1.003207518186318E+09, -9.688146716459613E+08,
2459818.500000000, A.D. 2022-Aug-27 00:00:00.0000, -5.141166191289267E+09, 1.000006458912043E+09, -9.682019241207397E+08,
2459825.500000000, A.D. 2022-Sep-03 00:00:00.0000, -5.141766664016839E+09, 9.968050763059993E+08, -9.675888635283403E+08,
2459832.500000000, A.D. 2022-Sep-10 00:00:00.0000, -5.142365573251149E+09, 9.936033708176097E+08, -9.669754900649226E+08,
2459839.500000000, A.D. 2022-Sep-17 00:00:00.0000, -5.142962918177720E+09, 9.904013430113509E+08, -9.663618039107392E+08,
2459846.500000000, A.D. 2022-Sep-24 00:00:00.0000, -5.143558698339617E+09, 9.871989933111044E+08, -9.657478052423813E+08,
2459853.500000000, A.D. 2022-Oct-01 00:00:00.0000, -5.144152913414862E+09, 9.839963215700636E+08, -9.651334942856174E+08,
2459860.500000000, A.D. 2022-Oct-08 00:00:00.0000, -5.144745562287456E+09, 9.807933269882717E+08, -9.645188714037026E+08,
2459867.500000000, A.D. 2022-Oct-15 00:00:00.0000, -5.145336642343792E+09, 9.775900095769843E+08, -9.639039370379310E+08,
2459874.500000000, A.D. 2022-Oct-22 00:00:00.0000, -5.145926151176071E+09, 9.743863714859520E+08, -9.632886914381906E+08,
2459881.500000000, A.D. 2022-Oct-29 00:00:00.0000, -5.146514088194908E+09, 9.711824156001440E+08, -9.626731346248686E+08,
2459888.500000000, A.D. 2022-Nov-05 00:00:00.0000, -5.147100454051801E+09, 9.679781441470549E+08, -9.620572665509276E+08,
2459895.500000000, A.D. 2022-Nov-12 00:00:00.0000, -5.147685249836295E+09, 9.647735585818223E+08, -9.614410871806123E+08,
2459902.500000000, A.D. 2022-Nov-19 00:00:00.0000, -5.148268476767220E+09, 9.615686597960391E+08, -9.608245964969690E+08,
2459909.500000000, A.D. 2022-Nov-26 00:00:00.0000, -5.148850136115764E+09, 9.583634482529297E+08, -9.602077944948452E+08,
2459916.500000000, A.D. 2022-Dec-03 00:00:00.0000, -5.149430229194386E+09, 9.551579240373623E+08, -9.595906811756413E+08,
2459923.500000000, A.D. 2022-Dec-10 00:00:00.0000, -5.150008757365996E+09, 9.519520868393915E+08, -9.589732565465115E+08,
2459930.500000000, A.D. 2022-Dec-17 00:00:00.0000, -5.150585722048738E+09, 9.487459358463348E+08, -9.583555206283367E+08,
2459937.500000000, A.D. 2022-Dec-24 00:00:00.0000, -5.151161124606935E+09, 9.455394694775491E+08, -9.577374734878590E+08,
2459944.500000000, A.D. 2022-Dec-31 00:00:00.0000, -5.151734965770585E+09, 9.423326850694215E+08, -9.571191153179598E+08,
2459951.500000000, A.D. 2023-Jan-07 00:00:00.0000, -5.152307244460717E+09, 9.391255794729631E+08, -9.565004464986304E+08,
2459958.500000000, A.D. 2023-Jan-14 00:00:00.0000, -5.152877957987565E+09, 9.359181510608146E+08, -9.558814674175453E+08,
2459965.500000000, A.D. 2023-Jan-21 00:00:00.0000, -5.153447104266367E+09, 9.327103999710338E+08, -9.552621782503008E+08,
2459972.500000000, A.D. 2023-Jan-28 00:00:00.0000, -5.154014682382760E+09, 9.295023263921647E+08, -9.546425790526593E+08,
2459979.500000000, A.D. 2023-Feb-04 00:00:00.0000, -5.154580691716321E+09, 9.262939299173343E+08, -9.540226698981655E+08,
2459986.500000000, A.D. 2023-Feb-11 00:00:00.0000, -5.155145131417474E+09, 9.230852097738491E+08, -9.534024509121842E+08,
2459993.500000000, A.D. 2023-Feb-18 00:00:00.0000, -5.155708000300939E+09, 9.198761651052428E+08, -9.527819222637210E+08,
2460000.500000000, A.D. 2023-Feb-25 00:00:00.0000, -5.156269296892831E+09, 9.166667951441665E+08, -9.521610841522034E+08,
2460007.500000000, A.D. 2023-Mar-04 00:00:00.0000, -5.156829019529037E+09, 9.134570992951491E+08, -9.515399367969120E+08,
2460014.500000000, A.D. 2023-Mar-11 00:00:00.0000, -5.157387166476081E+09, 9.102470771279819E+08, -9.509184804314501E+08,
2460021.500000000, A.D. 2023-Mar-18 00:00:00.0000, -5.157943736027205E+09, 9.070367282324786E+08, -9.502967153114114E+08,
2460028.500000000, A.D. 2023-Mar-25 00:00:00.0000, -5.158498726370159E+09, 9.038260518876667E+08, -9.496746417575324E+08,
2460035.500000000, A.D. 2023-Apr-01 00:00:00.0000, -5.159052134801988E+09, 9.006150469390199E+08, -9.490522602408965E+08,
2460042.500000000, A.D. 2023-Apr-08 00:00:00.0000, -5.159603956906077E+09, 8.974037131089162E+08, -9.484295713534367E+08,
2460049.500000000, A.D. 2023-Apr-15 00:00:00.0000, -5.160154188028299E+09, 8.941920526343231E+08, -9.478065755396032E+08,
2460056.500000000, A.D. 2023-Apr-22 00:00:00.0000, -5.160702825243030E+09, 8.909800691798645E+08, -9.471832730044284E+08,
2460063.500000000, A.D. 2023-Apr-29 00:00:00.0000, -5.161249867073910E+09, 8.877677662792432E+08, -9.465596638647184E+08,
2460070.500000000, A.D. 2023-May-06 00:00:00.0000, -5.161795312729521E+09, 8.845551470862379E+08, -9.459357482363812E+08,
2460077.500000000, A.D. 2023-May-13 00:00:00.0000, -5.162339161830731E+09, 8.813422145418555E+08, -9.453115262414231E+08,
2460084.500000000, A.D. 2023-May-20 00:00:00.0000, -5.162881414395544E+09, 8.781289714666264E+08, -9.446869979964032E+08,
2460091.500000000, A.D. 2023-May-27 00:00:00.0000, -5.163422070887921E+09, 8.749154205486999E+08, -9.440621636027250E+08,
2460098.500000000, A.D. 2023-Jun-03 00:00:00.0000, -5.163961132273017E+09, 8.717015642537887E+08, -9.434370231421965E+08,
2460105.500000000, A.D. 2023-Jun-10 00:00:00.0000, -5.164498600054991E+09, 8.684874046432705E+08, -9.428115766814449E+08,
2460112.500000000, A.D. 2023-Jun-17 00:00:00.0000, -5.165034476208404E+09, 8.652729430403961E+08, -9.421858242985423E+08,
2460119.500000000, A.D. 2023-Jun-24 00:00:00.0000, -5.165568762683190E+09, 8.620581796002827E+08, -9.415597661568990E+08,
2460126.500000000, A.D. 2023-Jul-01 00:00:00.0000, -5.166101460230044E+09, 8.588431136118354E+08, -9.409334025821888E+08,
2460133.500000000, A.D. 2023-Jul-08 00:00:00.0000, -5.166632568220250E+09, 8.556277453537214E+08, -9.403067339217486E+08,
2460140.500000000, A.D. 2023-Jul-15 00:00:00.0000, -5.167162086736667E+09, 8.524120766746515E+08, -9.396797603007262E+08,
$$EOE